STARLINK-37604          
1 69203U 26114X   26155.75003471 -.01698983  00000+0 -85102-2 0  9993
2 69203  53.1580 264.4124 0001026  63.6221  58.5415 15.84136136  2813
STARLINK-37669          
1 69204U 26114Y   26155.75003471 -.01705577  00000+0 -85006-2 0  9995
2 69204  53.1579 264.4040 0000850  64.6774  61.4129 15.84254534  2815
STARLINK-37691          
1 69205U 26114Z   26155.75003471 -.01699726  00000+0 -83190-2 0  9996
2 69205  53.1578 264.3797 0001002  63.8275  73.9068 15.84615762  2814
STARLINK-37671          
1 69206U 26114AA  26155.75003471 -.01696836  00000+0 -83504-2 0  9995
2 69206  53.1579 264.3877 0001092  61.0785  72.7739 15.84496280  2814
STARLINK-37647          
1 69207U 26114AB  26155.75003471 -.01703384  00000+0 -84450-2 0  9994
2 69207  53.1578 264.3956 0001083  53.7803  76.2714 15.84356185  2812
STARLINK-37562          
1 69208U 26114AC  26155.75003471 -.01701207  00000+0 -82796-2 0  9998
2 69208  53.1579 264.3716 0000972  63.8500  77.7586 15.84734371  2810
STARLINK-37682          
1 69209U 26114AD  26155.75003471 -.01697032  00000+0 -82062-2 0  9995
2 69209  53.1579 264.3634 0001056  49.1960  96.2347 15.84857801  2816
STARLINK-37402          
1 69210U 26114AE  26155.75003471 -.01699318  00000+0 -81606-2 0  9999
2 69210  53.1574 264.3558 0000996  58.8102  90.3458 15.85004885  2810
STARLINK-37613          
1 69211U 26115A   26155.75003471 -.00014980  00000+0 -77601-4 0  9998
2 69211  97.2832 172.5161 0001073  91.8689 191.2933 15.80816348  2696
STARLINK-37713          
1 69212U 26115B   26155.75003471  .00075448  00000+0  39252-3 0  9992
2 69212  97.2827 172.5170 0001618  88.4217 196.4379 15.80743441  2699
STARLINK-37716          
1 69213U 26115C   26155.75003471 -.00000392  00000+0 -13084-5 0  9998
2 69213  97.2833 172.5159 0001505  93.1098 187.4398 15.80805855  2698
STARLINK-37620          
1 69214U 26115D   26155.75003471 -.00073748  00000+0 -38731-3 0  9998
2 69214  97.2830 172.5185 0001169 101.6664 187.4202 15.80828694  2695
STARLINK-37700          
1 69215U 26115E   26155.75003471 -.02459843  00000+0 -18257-1 0  9994
2 69215  97.2843 172.5173 0001644  96.2935 190.2559 15.76362814  2694
STARLINK-37766          
1 69216U 26115F   26155.75003471 -.00032602  00000+0 -17006-3 0  9996
2 69216  97.2826 172.5224 0001727 100.9740 196.6598 15.80819127  2694
STARLINK-37763          
1 69217U 26115G   26155.75003471  .00128007  00000+0  66034-3 0  9995
2 69217  97.2828 172.5238 0000950  81.3214 219.9302 15.80780548  2693
STARLINK-37724          
1 69218U 26115H   26155.75003471 -.00060239  00000+0 -31585-3 0  9993
2 69218  97.2829 172.5257 0001449  94.6558 211.3503 15.80820126  2694
STARLINK-37758          
1 69219U 26115J   26155.75003471 -.00059729  00000+0 -31285-3 0  9993
2 69219  97.2826 172.5343 0001016  98.3535 225.8782 15.80842696  2699
STARLINK-37201          
1 69220U 26115K   26155.75003471 -.00030645  00000+0 -15967-3 0  9990
2 69220  97.2832 172.5315 0001538 107.0855 210.1312 15.80833573  2699
STARLINK-37728          
1 69221U 26115L   26155.75003471 -.00059433  00000+0 -31133-3 0  9990
2 69221  97.2831 172.5372 0001224  89.9338 241.0375 15.80838811  2690
STARLINK-37760          
1 69222U 26115M   26155.75003471 -.00030298  00000+0 -15797-3 0  9997
2 69222  97.2831 172.5309 0001427  99.0638 216.3242 15.80818061  2694
STARLINK-37759          
1 69223U 26115N   26155.75003471 -.00043465  00000+0 -22709-3 0  9999
2 69223  97.2827 172.5388 0000981  95.9383 239.1098 15.80836883  2697
STARLINK-37725          
1 69224U 26115P   26155.75003471 -.00045133  00000+0 -23581-3 0  9993
2 69224  97.2833 172.5375 0000981 100.7987 231.0020 15.80843338  2695
STARLINK-37770          
1 69225U 26115Q   26155.75003471 -.00013628  00000+0 -70537-4 0  9992
2 69225  97.2832 172.5359 0001404  93.4120 234.9915 15.80809511  2695
STARLINK-37736          
1 69226U 26115R   26155.75003471 -.00021093  00000+0 -10964-3 0  9995
2 69226  97.2832 172.5374 0000725 101.8578 230.5941 15.80817782  2699
STARLINK-37737          
1 69227U 26115S   26155.75003471 -.00027015  00000+0 -14074-3 0  9992
2 69227  97.2830 172.5421 0001418  92.5901 251.2107 15.80814727  2710
STARLINK-37618          
1 69228U 26115T   26155.75003471  .00038329  00000+0  20014-3 0  9992
2 69228  97.2833 172.5514 0001414  98.7762 265.7692 15.80796387  2693
STARLINK-37679          
1 69229U 26115U   26155.75003471  .00008410  00000+0  44601-4 0  9990
2 69229  97.2828 172.5477 0001201  99.5050 256.6357 15.80818259  2699
STARLINK-37746          
1 69230U 26115V   26155.75003471 -.00023712  00000+0 -12338-3 0  9997
2 69230  97.2831 172.5436 0001041  87.6264 259.7994 15.80818449  2699
STARLINK-37557          
1 69231U 26115W   26155.75003471  .00029508  00000+0  15437-3 0  9998
2 69231  97.2834 172.5521 0001246  96.5281 269.0857 15.80802599  2694
STARLINK-37745          
1 69232U 26115X   26155.75003471  .00142876  00000+0  73683-3 0  9990
2 69232  97.2828 172.5621 0001378 119.5930 268.9301 15.80746460  2698
