OBJECT_NAME,OBJECT_ID,EPOCH,MEAN_MOTION,ECCENTRICITY,INCLINATION,RA_OF_ASC_NODE,ARG_OF_PERICENTER,MEAN_ANOMALY,EPHEMERIS_TYPE,CLASSIFICATION_TYPE,NORAD_CAT_ID,ELEMENT_SET_NO,REV_AT_EPOCH,BSTAR,MEAN_MOTION_DOT,MEAN_MOTION_DDOT
STARLINK-37604,2026-114X,2026-06-04T18:00:02.998944,15.84136136,.0001026,53.1580,264.4124,63.6221,58.5415,0,U,69203,999,281,-.85102E-2,-.1698983E-1,0
STARLINK-37669,2026-114Y,2026-06-04T18:00:02.998944,15.84254534,.000085,53.1579,264.4040,64.6774,61.4129,0,U,69204,999,281,-.85006E-2,-.1705577E-1,0
STARLINK-37691,2026-114Z,2026-06-04T18:00:02.998944,15.84615762,.0001002,53.1578,264.3797,63.8275,73.9068,0,U,69205,999,281,-.8319E-2,-.1699726E-1,0
STARLINK-37671,2026-114AA,2026-06-04T18:00:02.998944,15.84496280,.0001092,53.1579,264.3877,61.0785,72.7739,0,U,69206,999,281,-.83504E-2,-.1696836E-1,0
STARLINK-37647,2026-114AB,2026-06-04T18:00:02.998944,15.84356185,.0001083,53.1578,264.3956,53.7803,76.2714,0,U,69207,999,281,-.8445E-2,-.1703384E-1,0
STARLINK-37562,2026-114AC,2026-06-04T18:00:02.998944,15.84734371,.0000972,53.1579,264.3716,63.8500,77.7586,0,U,69208,999,281,-.82796E-2,-.1701207E-1,0
STARLINK-37682,2026-114AD,2026-06-04T18:00:02.998944,15.84857801,.0001056,53.1579,264.3634,49.1960,96.2347,0,U,69209,999,281,-.82062E-2,-.1697032E-1,0
STARLINK-37402,2026-114AE,2026-06-04T18:00:02.998944,15.85004885,.0000996,53.1574,264.3558,58.8102,90.3458,0,U,69210,999,281,-.81606E-2,-.1699318E-1,0
STARLINK-37613,2026-115A,2026-06-04T18:00:02.998944,15.80816348,.0001073,97.2832,172.5161,91.8689,191.2933,0,U,69211,999,269,-.77601E-4,-.1498E-3,0
STARLINK-37713,2026-115B,2026-06-04T18:00:02.998944,15.80743441,.0001618,97.2827,172.5170,88.4217,196.4379,0,U,69212,999,269,.39252E-3,.75448E-3,0
STARLINK-37716,2026-115C,2026-06-04T18:00:02.998944,15.80805855,.0001505,97.2833,172.5159,93.1098,187.4398,0,U,69213,999,269,-.13084E-5,-.392E-5,0
STARLINK-37620,2026-115D,2026-06-04T18:00:02.998944,15.80828694,.0001169,97.2830,172.5185,101.6664,187.4202,0,U,69214,999,269,-.38731E-3,-.73748E-3,0
STARLINK-37700,2026-115E,2026-06-04T18:00:02.998944,15.76362814,.0001644,97.2843,172.5173,96.2935,190.2559,0,U,69215,999,269,-.18257E-1,-.2459843E-1,0
STARLINK-37766,2026-115F,2026-06-04T18:00:02.998944,15.80819127,.0001727,97.2826,172.5224,100.9740,196.6598,0,U,69216,999,269,-.17006E-3,-.32602E-3,0
STARLINK-37763,2026-115G,2026-06-04T18:00:02.998944,15.80780548,.000095,97.2828,172.5238,81.3214,219.9302,0,U,69217,999,269,.66034E-3,.128007E-2,0
STARLINK-37724,2026-115H,2026-06-04T18:00:02.998944,15.80820126,.0001449,97.2829,172.5257,94.6558,211.3503,0,U,69218,999,269,-.31585E-3,-.60239E-3,0
STARLINK-37758,2026-115J,2026-06-04T18:00:02.998944,15.80842696,.0001016,97.2826,172.5343,98.3535,225.8782,0,U,69219,999,269,-.31285E-3,-.59729E-3,0
STARLINK-37201,2026-115K,2026-06-04T18:00:02.998944,15.80833573,.0001538,97.2832,172.5315,107.0855,210.1312,0,U,69220,999,269,-.15967E-3,-.30645E-3,0
STARLINK-37728,2026-115L,2026-06-04T18:00:02.998944,15.80838811,.0001224,97.2831,172.5372,89.9338,241.0375,0,U,69221,999,269,-.31133E-3,-.59433E-3,0
STARLINK-37760,2026-115M,2026-06-04T18:00:02.998944,15.80818061,.0001427,97.2831,172.5309,99.0638,216.3242,0,U,69222,999,269,-.15797E-3,-.30298E-3,0
STARLINK-37759,2026-115N,2026-06-04T18:00:02.998944,15.80836883,.0000981,97.2827,172.5388,95.9383,239.1098,0,U,69223,999,269,-.22709E-3,-.43465E-3,0
STARLINK-37725,2026-115P,2026-06-04T18:00:02.998944,15.80843338,.0000981,97.2833,172.5375,100.7987,231.0020,0,U,69224,999,269,-.23581E-3,-.45133E-3,0
STARLINK-37770,2026-115Q,2026-06-04T18:00:02.998944,15.80809511,.0001404,97.2832,172.5359,93.4120,234.9915,0,U,69225,999,269,-.70537E-4,-.13628E-3,0
STARLINK-37736,2026-115R,2026-06-04T18:00:02.998944,15.80817782,.0000725,97.2832,172.5374,101.8578,230.5941,0,U,69226,999,269,-.10964E-3,-.21093E-3,0
STARLINK-37737,2026-115S,2026-06-04T18:00:02.998944,15.80814727,.0001418,97.2830,172.5421,92.5901,251.2107,0,U,69227,999,271,-.14074E-3,-.27015E-3,0
STARLINK-37618,2026-115T,2026-06-04T18:00:02.998944,15.80796387,.0001414,97.2833,172.5514,98.7762,265.7692,0,U,69228,999,269,.20014E-3,.38329E-3,0
STARLINK-37679,2026-115U,2026-06-04T18:00:02.998944,15.80818259,.0001201,97.2828,172.5477,99.5050,256.6357,0,U,69229,999,269,.44601E-4,.841E-4,0
STARLINK-37746,2026-115V,2026-06-04T18:00:02.998944,15.80818449,.0001041,97.2831,172.5436,87.6264,259.7994,0,U,69230,999,269,-.12338E-3,-.23712E-3,0
STARLINK-37557,2026-115W,2026-06-04T18:00:02.998944,15.80802599,.0001246,97.2834,172.5521,96.5281,269.0857,0,U,69231,999,269,.15437E-3,.29508E-3,0
STARLINK-37745,2026-115X,2026-06-04T18:00:02.998944,15.80746460,.0001378,97.2828,172.5621,119.5930,268.9301,0,U,69232,999,269,.73683E-3,.142876E-2,0
